SKYSAT-C1               
1 41601U 16040C   26164.82932362  .00009488  00000+0  27056-3 0  9998
2 41601  96.9565 196.7310 0003746  65.1190 295.0444 15.36249100557357
LAPAN-A3                
1 41603U 16040E   26164.92766294  .00003510  00000+0  11200-3 0  9994
2 41603  97.1482 161.1803 0011261  36.6552 323.5459 15.33085834554314
GAOFEN-3                
1 41727U 16049A   26164.96196514 -.00000093  00000+0 -15194-4 0  9998
2 41727  98.4009 172.7961 0001312  99.3158 260.8180 14.42214770518188
SKYSAT-C4               
1 41771U 16058B   26164.51956327  .00016454  00000+0  31105-3 0  9999
2 41771  96.9169 186.4454 0001109 125.9066 234.2289 15.48479013544908
SKYSAT-C5               
1 41772U 16058C   26164.64766230  .00008003  00000+0  24226-3 0  9993
2 41772  97.0474 205.4457 0001411 341.0647  19.0544 15.34423766543201
SKYSAT-C2               
1 41773U 16058D   26164.82010082  .00012398  00000+0  29255-3 0  9990
2 41773  97.0167 187.0417 0004921  77.7329 282.4470 15.41999859544531
SKYSAT-C3               
1 41774U 16058E   26164.59826911  .00021988  00000+0  36138-3 0  9994
2 41774  96.9005 195.5834 0001652  88.5847 271.5596 15.52394867545552
ALSAT-1B                
1 41785U 16059C   26164.97793738  .00000195  00000+0  38318-4 0  9999
2 41785  97.7748 173.8800 0007900 232.1457 127.9036 14.72271957520107
PATHFINDER 1            
1 41787U 16059E   26164.93221363  .00000528  00000+0  10054-3 0  9993
2 41787  97.8166 164.3553 0027556 214.2263 145.7167 14.67659871519233
SCATSAT 1               
1 41790U 16059H   26164.89937437  .00001008  00000+0  13922-3 0  9999
2 41790  98.1191 228.6315 0053281 258.3738 101.1490 14.79519288101107
GOKTURK 1A              
1 41875U 16073A   26164.96234395  .00000634  00000+0  13343-3 0  9991
2 41875  98.1263  59.6877 0001448  76.9184 283.2179 14.62773381508355
RESOURCESAT-2A          
1 41877U 16074A   26164.97398388  .00000191  00000+0  10715-3 0  9996
2 41877  98.7532 238.5044 0003351  90.0355 270.1207 14.21615323493848
CARTOSAT-2D             
1 41948U 17008A   26164.93118308  .00002951  00000+0  14298-3 0  9997
2 41948  97.4115 224.2975 0003649 243.4453 116.6408 15.19308810517086
SENTINEL-2B             
1 42063U 17013A   26164.92077681 -.00000154  00000+0 -41938-4 0  9996
2 42063  98.5697 239.7410 0001179  85.8172 274.3146 14.30815061484176
CARTOSAT-2E             
1 42767U 17036C   26164.94893248  .00004220  00000+0  20354-3 0  9993
2 42767  97.4284 224.8044 0002710 337.6184  22.4932 15.19231811497653
FORMOSAT-5              
1 42920U 17049A   26164.94955179  .00000152  00000+0  49526-4 0  9993
2 42920  98.2253 240.3311 0012701  93.2943 266.9705 14.50897784466209
SENTINEL-5P             
1 42969U 17064A   26164.81855227  .00000034  00000+0  37204-4 0  9991
2 42969  98.7925 106.9737 0000969  83.5750 276.5536 14.19518491449089
SKYSAT-C11              
1 42987U 17068A   26164.90978487  .00027257  00000+0  36822-3 0  9999
2 42987  97.4343 313.5981 0000752  89.0145 271.1197 15.57739497482732
SKYSAT-C10              
1 42988U 17068B   26164.96689582  .00009389  00000+0  28251-3 0  9994
2 42988  97.4499 301.7826 0001140  93.8130 266.3244 15.34590124481860
SKYSAT-C9               
1 42989U 17068C   26164.92839600  .00013865  00000+0  33228-3 0  9993
2 42989  97.4418 302.6474 0009261 143.3111 216.8771 15.41488563482253
SKYSAT-C8               
1 42990U 17068D   26164.94313570  .00010885  00000+0  30374-3 0  9998
2 42990  97.4516 301.5459 0001480  98.0726 262.0686 15.36918542481816
SKYSAT-C7               
1 42991U 17068E   26164.93664802  .00010808  00000+0  30186-3 0  9991
2 42991  97.4526 302.5286 0007188 115.8713 244.3273 15.36867720481874
SKYSAT-C6               
1 42992U 17068F   26164.95082249  .00009439  00000+0  28781-3 0  9999
2 42992  97.4560 302.5247 0004267 145.8503 214.3015 15.34159890481821
CARTOSAT-2F             
1 43111U 18004A   26164.98102887  .00004315  00000+0  20836-3 0  9999
2 43111  97.4794 224.6467 0000474 242.7907 117.3279 15.19190972466841
GAOFEN-1 02             
1 43259U 18031A   26164.97772851  .00000399  00000+0  64798-4 0  9999
2 43259  98.0534 227.5134 0004025  41.8976 318.2541 14.76451228442222
GAOFEN-1 03             
1 43260U 18031B   26164.95590262  .00000663  00000+0  10262-3 0  9993
2 43260  98.0523 227.3507 0003806  85.4854 274.6791 14.76464969442216
GAOFEN-1 04             
1 43262U 18031D   26164.93158921  .00000713  00000+0  10991-3 0  9990
2 43262  98.0536 227.5164 0002243  85.5209 274.6257 14.76474560442206
SENTINEL-3B             
1 43437U 18039A   26164.89359814  .00000106  00000+0  61918-4 0  9993
2 43437  98.6250 232.4730 0000756  83.1152 277.0114 14.26733944423657
GAOFEN-5 01             
1 43461U 18043A   26164.91049017  .00000290  00000+0  69775-4 0  9992
2 43461  98.4567 136.4279 0003033  89.0147 271.1400 14.60603350431213
GAOFEN-6                
1 43484U 18048A   26164.95398273  .00000803  00000+0  12209-3 0  9996
2 43484  97.8552 227.7838 0011590 177.8328 182.2934 14.76595590432919
