OBJECT_NAME,OBJECT_ID,EPOCH,MEAN_MOTION,ECCENTRICITY,INCLINATION,RA_OF_ASC_NODE,ARG_OF_PERICENTER,MEAN_ANOMALY,EPHEMERIS_TYPE,CLASSIFICATION_TYPE,NORAD_CAT_ID,ELEMENT_SET_NO,REV_AT_EPOCH,BSTAR,MEAN_MOTION_DOT,MEAN_MOTION_DDOT
SKYSAT-C1,2016-040C,2026-06-13T19:54:13.560768,15.36249100,.00037462,96.9565,196.7310,65.1190,295.0444,0,U,41601,999,55735,.2705606E-3,.9488E-4,0
LAPAN-A3,2016-040E,2026-06-13T22:15:50.078016,15.33085834,.0011261,97.1482,161.1803,36.6552,323.5459,0,U,41603,999,55431,.11199651E-3,.351E-4,0
GAOFEN-3,2016-049A,2026-06-13T23:05:13.788096,14.42214770,.00013124,98.4009,172.7961,99.3158,260.8180,0,U,41727,999,51818,-.15194364E-4,-.93E-6,0
SKYSAT-C4,2016-058B,2026-06-13T12:28:10.266528,15.48479013,.0001109,96.9169,186.4454,125.9066,234.2289,0,U,41771,999,54490,.31104583E-3,.16454E-3,0
SKYSAT-C5,2016-058C,2026-06-13T15:32:38.022720,15.34423766,.00014116,97.0474,205.4457,341.0647,19.0544,0,U,41772,999,54320,.24226216E-3,.8003E-4,0
SKYSAT-C2,2016-058D,2026-06-13T19:40:56.710848,15.41999859,.00049217,97.0167,187.0417,77.7329,282.4470,0,U,41773,999,54453,.29254754E-3,.12398E-3,0
SKYSAT-C3,2016-058E,2026-06-13T14:21:30.451104,15.52394867,.0001652,96.9005,195.5834,88.5847,271.5596,0,U,41774,999,54555,.36138E-3,.21988E-3,0
ALSAT-1B,2016-059C,2026-06-13T23:28:13.789632,14.72271957,.00079009,97.7748,173.8800,232.1457,127.9036,0,U,41785,999,52010,.38318375E-4,.195E-5,0
PATHFINDER 1,2016-059E,2026-06-13T22:22:23.257632,14.67659871,.00275562,97.8166,164.3553,214.2263,145.7167,0,U,41787,999,51923,.10053559E-3,.528E-5,0
SCATSAT 1,2016-059H,2026-06-13T21:35:05.945568,14.79519288,.00532815,98.1191,228.6315,258.3738,101.1490,0,U,41790,999,10110,.13921641E-3,.1008E-4,0
GOKTURK 1A,2016-073A,2026-06-13T23:05:46.517280,14.62773381,.00014483,98.1263,59.6877,76.9184,283.2179,0,U,41875,999,50835,.1334298E-3,.634E-5,0
RESOURCESAT-2A,2016-074A,2026-06-13T23:22:32.207232,14.21615323,.00033514,98.7532,238.5044,90.0355,270.1207,0,U,41877,999,49384,.10714778E-3,.191E-5,0
CARTOSAT-2D,2017-008A,2026-06-13T22:20:54.218112,15.19308810,.0003649,97.4115,224.2975,243.4453,116.6408,0,U,41948,999,51708,.14297752E-3,.2951E-4,0
SENTINEL-2B,2017-013A,2026-06-13T22:05:55.116384,14.30815061,.00011799,98.5697,239.7410,85.8172,274.3146,0,U,42063,999,48417,-.41937866E-4,-.154E-5,0
CARTOSAT-2E,2017-036C,2026-06-13T22:46:27.766272,15.19231811,.00027109,97.4284,224.8044,337.6184,22.4932,0,U,42767,999,49765,.20354478E-3,.422E-4,0
FORMOSAT-5,2017-049A,2026-06-13T22:47:21.274656,14.50897784,.00127019,98.2253,240.3311,93.2943,266.9705,0,U,42920,999,46620,.49526024E-4,.152E-5,0
SENTINEL-5P,2017-064A,2026-06-13T19:38:42.916128,14.19518491,.00009694,98.7925,106.9737,83.5750,276.5536,0,U,42969,999,44908,.37204499E-4,.34E-6,0
SKYSAT-C11,2017-068A,2026-06-13T21:50:05.412768,15.57739497,.00007527,97.4343,313.5981,89.0145,271.1197,0,U,42987,999,48273,.36821685E-3,.27257E-3,0
SKYSAT-C10,2017-068B,2026-06-13T23:12:19.798848,15.34590124,.00011404,97.4499,301.7826,93.8130,266.3244,0,U,42988,999,48186,.28250667E-3,.9389E-4,0
SKYSAT-C9,2017-068C,2026-06-13T22:16:53.414400,15.41488563,.00092613,97.4418,302.6474,143.3111,216.8771,0,U,42989,999,48225,.33227641E-3,.13865E-3,0
SKYSAT-C8,2017-068D,2026-06-13T22:38:06.924480,15.36918542,.00014802,97.4516,301.5459,98.0726,262.0686,0,U,42990,999,48181,.30373857E-3,.10885E-3,0
SKYSAT-C7,2017-068E,2026-06-13T22:28:46.388928,15.36867720,.00071884,97.4526,302.5286,115.8713,244.3273,0,U,42991,999,48187,.30185618E-3,.10808E-3,0
SKYSAT-C6,2017-068F,2026-06-13T22:49:11.063136,15.34159890,.00042678,97.4560,302.5247,145.8503,214.3015,0,U,42992,999,48182,.28780502E-3,.9439E-4,0
CARTOSAT-2F,2018-004A,2026-06-13T23:32:40.894368,15.19190972,.00004747,97.4794,224.6467,242.7907,117.3279,0,U,43111,999,46684,.20835743E-3,.4315E-4,0
GAOFEN-1 02,2018-031A,2026-06-13T23:27:55.743264,14.76451228,.00040256,98.0534,227.5134,41.8976,318.2541,0,U,43259,999,44222,.6479837E-4,.399E-5,0
GAOFEN-1 03,2018-031B,2026-06-13T22:56:29.986368,14.76464969,.00038066,98.0523,227.3507,85.4854,274.6791,0,U,43260,999,44221,.10261808E-3,.663E-5,0
GAOFEN-1 04,2018-031D,2026-06-13T22:21:29.307744,14.76474560,.00022437,98.0536,227.5164,85.5209,274.6257,0,U,43262,999,44220,.10990581E-3,.713E-5,0
SENTINEL-3B,2018-039A,2026-06-13T21:26:46.879296,14.26733944,.00007564,98.6250,232.4730,83.1152,277.0114,0,U,43437,999,42365,.61917607E-4,.106E-5,0
GAOFEN-5 01,2018-043A,2026-06-13T21:51:06.350688,14.60603350,.00030335,98.4567,136.4279,89.0147,271.1400,0,U,43461,999,43121,.69774547E-4,.29E-5,0
GAOFEN-6,2018-048A,2026-06-13T22:53:44.107872,14.76595590,.00115908,97.8552,227.7838,177.8328,182.2934,0,U,43484,999,43291,.12208627E-3,.803E-5,0
